start=new Date('2023-01-20T00:00:00.000Z').valueOf();
sats=[{"OBJECT_ID":"2020-088S","MEAN_ELEMENT_THEORY":"SGP4","TLE_LINE2":"2 47138  53.0539  36.6613 0001672  89.1769 270.9411 15.06414503119645","FILE":"3755110","CENTER_NAME":"EARTH","SITE":"AFETR","PERIAPSIS":"546.011","LAUNCH_DATE":"2020-11-25","CLASSIFICATION_TYPE":"U","COUNTRY_CODE":"US","EPHEMERIS_TYPE":"0","RCS_SIZE":"LARGE","MEAN_MOTION_DDOT":"0.0000000000000","BSTAR":"0.00115130000000","OBJECT_NAME":"STARLINK-1850","DECAY_DATE":null,"RA_OF_ASC_NODE":"36.6613","SEMIMAJOR_AXIS":"6925.304","ELEMENT_SET_NO":"999","MEAN_ANOMALY":"270.9411","EPOCH":"2023-01-19T18:37:06.341376","OBJECT_TYPE":"PAYLOAD","PERIOD":"95.591","NORAD_CAT_ID":"47138","TLE_LINE1":"1 47138U 20088S   23019.77576784  .00016915  00000-0  11513-2 0  9992","GP_ID":"223503761","MEAN_MOTION":"15.06414503","ECCENTRICITY":"0.00016720","INCLINATION":"53.0539","REF_FRAME":"TEME","ARG_OF_PERICENTER":"89.1769","TIME_SYSTEM":"UTC","REV_AT_EPOCH":"11964","APOAPSIS":"548.327","MEAN_MOTION_DOT":"0.00016915"},{"TIME_SYSTEM":"UTC","ARG_OF_PERICENTER":"78.1312","MEAN_MOTION_DOT":"0.00023223","REV_AT_EPOCH":"11949","APOAPSIS":"548.607","MEAN_MOTION":"15.06403945","REF_FRAME":"TEME","INCLINATION":"53.0562","ECCENTRICITY":"0.00020290","PERIOD":"95.592","OBJECT_TYPE":"PAYLOAD","GP_ID":"223504266","TLE_LINE1":"1 47139U 20088T   23019.76008907  .00023223  00000-0  15726-2 0  9999","NORAD_CAT_ID":"47139","SEMIMAJOR_AXIS":"6925.336","ELEMENT_SET_NO":"999","DECAY_DATE":null,"RA_OF_ASC_NODE":"46.6058","MEAN_ANOMALY":"281.9904","EPOCH":"2023-01-19T18:14:31.695648","COUNTRY_CODE":"US","CLASSIFICATION_TYPE":"U","OBJECT_NAME":"STARLINK-1852","BSTAR":"0.00157260000000","MEAN_MOTION_DDOT":"0.0000000000000","RCS_SIZE":"LARGE","EPHEMERIS_TYPE":"0","LAUNCH_DATE":"2020-11-25","PERIAPSIS":"545.796","SITE":"AFETR","CENTER_NAME":"EARTH","FILE":"3755111","TLE_LINE2":"2 47139  53.0562  46.6058 0002029  78.1312 281.9904 15.06403945119495","OBJECT_ID":"2020-088T","MEAN_ELEMENT_THEORY":"SGP4"},{"OBJECT_TYPE":"PAYLOAD","PERIOD":"95.592","TLE_LINE1":"1 47141U 20088V   23019.75223013  .00005952  00000-0  41805-3 0  9995","NORAD_CAT_ID":"47141","GP_ID":"223504291","MEAN_MOTION":"15.06408501","INCLINATION":"53.0528","ECCENTRICITY":"0.00025370","REF_FRAME":"TEME","ARG_OF_PERICENTER":"77.5275","TIME_SYSTEM":"UTC","APOAPSIS":"548.944","REV_AT_EPOCH":"11970","MEAN_MOTION_DOT":"0.00005952","FILE":"3755126","TLE_LINE2":"2 47141  53.0528  31.4479 0002537  77.5275 282.5997 15.06408501119700","OBJECT_ID":"2020-088V","MEAN_ELEMENT_THEORY":"SGP4","CENTER_NAME":"EARTH","SITE":"AFETR","LAUNCH_DATE":"2020-11-25","PERIAPSIS":"545.431","CLASSIFICATION_TYPE":"U","COUNTRY_CODE":"US","RCS_SIZE":"LARGE","EPHEMERIS_TYPE":"0","OBJECT_NAME":"STARLINK-1854","BSTAR":"0.00041805000000","MEAN_MOTION_DDOT":"0.0000000000000","RA_OF_ASC_NODE":"31.4479","DECAY_DATE":null,"SEMIMAJOR_AXIS":"6925.323","ELEMENT_SET_NO":"999","EPOCH":"2023-01-19T18:03:12.683232","MEAN_ANOMALY":"282.5997"},{"PERIOD":"95.591","OBJECT_TYPE":"PAYLOAD","GP_ID":"223503796","NORAD_CAT_ID":"47143","TLE_LINE1":"1 47143U 20088X   23019.73380085  .00021739  00000-0  14730-2 0  9995","MEAN_MOTION":"15.06419493","REF_FRAME":"TEME","ECCENTRICITY":"0.00026550","INCLINATION":"53.0527","TIME_SYSTEM":"UTC","ARG_OF_PERICENTER":"89.2633","MEAN_MOTION_DOT":"0.00021739","APOAPSIS":"548.992","REV_AT_EPOCH":"11969","CENTER_NAME":"EARTH","MEAN_ELEMENT_THEORY":"SGP4","OBJECT_ID":"2020-088X","TLE_LINE2":"2 47143  53.0527  31.5346 0002655  89.2633 270.8661 15.06419493119692","FILE":"3755126","PERIAPSIS":"545.315","LAUNCH_DATE":"2020-11-25","SITE":"AFETR","COUNTRY_CODE":"US","CLASSIFICATION_TYPE":"U","BSTAR":"0.00147300000000","MEAN_MOTION_DDOT":"0.0000000000000","OBJECT_NAME":"STARLINK-1856","EPHEMERIS_TYPE":"0","RCS_SIZE":"LARGE","ELEMENT_SET_NO":"999","SEMIMAJOR_AXIS":"6925.289","RA_OF_ASC_NODE":"31.5346","DECAY_DATE":null,"MEAN_ANOMALY":"270.8661","EPOCH":"2023-01-19T17:36:40.393440"},{"MEAN_ANOMALY":"273.8754","EPOCH":"2023-01-19T09:19:04.005984","RA_OF_ASC_NODE":"23.0762","DECAY_DATE":null,"SEMIMAJOR_AXIS":"6925.305","ELEMENT_SET_NO":"999","EPHEMERIS_TYPE":"0","RCS_SIZE":"LARGE","MEAN_MOTION_DDOT":"0.0000000000000","BSTAR":"0.00033888000000","OBJECT_NAME":"STARLINK-1857","CLASSIFICATION_TYPE":"U","COUNTRY_CODE":"US","SITE":"AFETR","PERIAPSIS":"546.080","LAUNCH_DATE":"2020-11-25","MEAN_ELEMENT_THEORY":"SGP4","OBJECT_ID":"2020-088Y","FILE":"3754973","TLE_LINE2":"2 47144  53.0548  23.0762 0001574  86.2415 273.8754 15.06414168119496","CENTER_NAME":"EARTH","APOAPSIS":"548.260","REV_AT_EPOCH":"11949","MEAN_MOTION_DOT":"0.00004772","ARG_OF_PERICENTER":"86.2415","TIME_SYSTEM":"UTC","ECCENTRICITY":"0.00015740","INCLINATION":"53.0548","REF_FRAME":"TEME","MEAN_MOTION":"15.06414168","NORAD_CAT_ID":"47144","TLE_LINE1":"1 47144U 20088Y   23019.38824081  .00004772  00000-0  33888-3 0  9990","GP_ID":"223496961","OBJECT_TYPE":"PAYLOAD","PERIOD":"95.591"},{"MEAN_MOTION_DOT":"0.00000760","REV_AT_EPOCH":"11923","APOAPSIS":"548.754","TIME_SYSTEM":"UTC","ARG_OF_PERICENTER":"81.3031","REF_FRAME":"TEME","ECCENTRICITY":"0.00021460","INCLINATION":"53.0555","MEAN_MOTION":"15.06382294","GP_ID":"223496709","NORAD_CAT_ID":"47147","TLE_LINE1":"1 47147U 20088AB  23019.47855334  .00000760  00000-0  69984-4 0  9998","PERIOD":"95.593","OBJECT_TYPE":"PAYLOAD","EPOCH":"2023-01-19T11:29:07.008576","MEAN_ANOMALY":"278.8201","SEMIMAJOR_AXIS":"6925.403","ELEMENT_SET_NO":"999","RA_OF_ASC_NODE":"42.6646","DECAY_DATE":null,"MEAN_MOTION_DDOT":"0.0000000000000","BSTAR":"0.00006998400000","OBJECT_NAME":"STARLINK-1860","EPHEMERIS_TYPE":"0","RCS_SIZE":"LARGE","COUNTRY_CODE":"US","CLASSIFICATION_TYPE":"U","PERIAPSIS":"545.782","LAUNCH_DATE":"2020-11-25","SITE":"AFETR","CENTER_NAME":"EARTH","MEAN_ELEMENT_THEORY":"SGP4","OBJECT_ID":"2020-088AB","TLE_LINE2":"2 47147  53.0555  42.6646 0002146  81.3031 278.8201 15.06382294119239","FILE":"3754973"},{"MEAN_MOTION":"15.06404181","REF_FRAME":"TEME","INCLINATION":"53.0540","ECCENTRICITY":"0.00014170","PERIOD":"95.592","OBJECT_TYPE":"PAYLOAD","GP_ID":"223495960","TLE_LINE1":"1 47148U 20088AC  23019.52003048  .00032128  00000-0  21657-2 0  9998","NORAD_CAT_ID":"47148","TIME_SYSTEM":"UTC","ARG_OF_PERICENTER":"88.7126","MEAN_MOTION_DOT":"0.00032128","APOAPSIS":"548.182","REV_AT_EPOCH":"11937","LAUNCH_DATE":"2020-11-25","PERIAPSIS":"546.219","SITE":"AFETR","CENTER_NAME":"EARTH","FILE":"3754973","TLE_LINE2":"2 47148  53.0540  32.4832 0001417  88.7126 271.4025 15.06404181119372","MEAN_ELEMENT_THEORY":"SGP4","OBJECT_ID":"2020-088AC","SEMIMAJOR_AXIS":"6925.336","ELEMENT_SET_NO":"999","RA_OF_ASC_NODE":"32.4832","DECAY_DATE":null,"EPOCH":"2023-01-19T12:28:50.633472","MEAN_ANOMALY":"271.4025","COUNTRY_CODE":"US","CLASSIFICATION_TYPE":"U","OBJECT_NAME":"STARLINK-1861","MEAN_MOTION_DDOT":"0.0000000000000","BSTAR":"0.00216570000000","RCS_SIZE":"LARGE","EPHEMERIS_TYPE":"0"},{"EPOCH":"2023-01-19T17:56:34.086336","MEAN_ANOMALY":"275.3942","RA_OF_ASC_NODE":"41.4711","DECAY_DATE":null,"SEMIMAJOR_AXIS":"6925.332","ELEMENT_SET_NO":"999","EPHEMERIS_TYPE":"0","RCS_SIZE":"LARGE","MEAN_MOTION_DDOT":"0.0000000000000","BSTAR":"0.00294860000000","OBJECT_NAME":"STARLINK-1862","CLASSIFICATION_TYPE":"U","COUNTRY_CODE":"US","SITE":"AFETR","PERIAPSIS":"546.160","LAUNCH_DATE":"2020-11-25","MEAN_ELEMENT_THEORY":"SGP4","OBJECT_ID":"2020-088AD","FILE":"3755120","TLE_LINE2":"2 47149  53.0547  41.4711 0001497  84.7218 275.3942 15.06405338119525","CENTER_NAME":"EARTH","APOAPSIS":"548.234","REV_AT_EPOCH":"11952","MEAN_MOTION_DOT":"0.00043919","ARG_OF_PERICENTER":"84.7218","TIME_SYSTEM":"UTC","ECCENTRICITY":"0.00014970","INCLINATION":"53.0547","REF_FRAME":"TEME","MEAN_MOTION":"15.06405338","NORAD_CAT_ID":"47149","TLE_LINE1":"1 47149U 20088AD  23019.74761674  .00043919  00000-0  29486-2 0  9997","GP_ID":"223503910","OBJECT_TYPE":"PAYLOAD","PERIOD":"95.592"},{"OBJECT_TYPE":"PAYLOAD","PERIOD":"95.591","NORAD_CAT_ID":"47150","TLE_LINE1":"1 47150U 20088AE  23019.74116482  .00004655  00000-0  33101-3 0  9994","GP_ID":"223503926","MEAN_MOTION":"15.06417573","ECCENTRICITY":"0.00013370","INCLINATION":"53.0550","REF_FRAME":"TEME","ARG_OF_PERICENTER":"91.9373","TIME_SYSTEM":"UTC","REV_AT_EPOCH":"11966","APOAPSIS":"548.086","MEAN_MOTION_DOT":"0.00004655","OBJECT_ID":"2020-088AE","MEAN_ELEMENT_THEORY":"SGP4","FILE":"3755121","TLE_LINE2":"2 47150  53.0550  31.4896 0001337  91.9373 268.1769 15.06417573119665","CENTER_NAME":"EARTH","SITE":"AFETR","PERIAPSIS":"546.234","LAUNCH_DATE":"2020-11-25","CLASSIFICATION_TYPE":"U","COUNTRY_CODE":"US","EPHEMERIS_TYPE":"0","RCS_SIZE":"LARGE","MEAN_MOTION_DDOT":"0.0000000000000","BSTAR":"0.00033101000000","OBJECT_NAME":"STARLINK-1863","RA_OF_ASC_NODE":"31.4896","DECAY_DATE":null,"SEMIMAJOR_AXIS":"6925.295","ELEMENT_SET_NO":"999","EPOCH":"2023-01-19T17:47:16.640448","MEAN_ANOMALY":"268.1769"},{"OBJECT_NAME":"STARLINK-1864","BSTAR":"0.00061770000000","MEAN_MOTION_DDOT":"0.0000000000000","RCS_SIZE":"LARGE","EPHEMERIS_TYPE":"0","COUNTRY_CODE":"US","CLASSIFICATION_TYPE":"U","MEAN_ANOMALY":"277.8671","EPOCH":"2023-01-19T11:23:47.595552","ELEMENT_SET_NO":"999","SEMIMAJOR_AXIS":"6925.252","RA_OF_ASC_NODE":"42.6936","DECAY_DATE":null,"CENTER_NAME":"EARTH","TLE_LINE2":"2 47151  53.0535  42.6936 0001712  82.2512 277.8671 15.06431620119223","FILE":"3754973","MEAN_ELEMENT_THEORY":"SGP4","OBJECT_ID":"2020-088AF","LAUNCH_DATE":"2020-11-25","PERIAPSIS":"545.931","SITE":"AFETR","MEAN_MOTION_DOT":"0.00008939","REV_AT_EPOCH":"11922","APOAPSIS":"548.302","TIME_SYSTEM":"UTC","ARG_OF_PERICENTER":"82.2512","GP_ID":"223497209","TLE_LINE1":"1 47151U 20088AF  23019.47485643  .00008939  00000-0  61770-3 0  9995","NORAD_CAT_ID":"47151","PERIOD":"95.590","OBJECT_TYPE":"PAYLOAD","REF_FRAME":"TEME","INCLINATION":"53.0535","ECCENTRICITY":"0.00017120","MEAN_MOTION":"15.06431620"}];
